NORAD_CAT_ID,OBJECT_NAME,OBJECT_TYPE,EPOCH,MEAN_MOTION,ECCENTRICITY,INCLINATION,RA_OF_ASC_NODE,ARG_OF_PERICENTER,MEAN_ANOMALY,BSTAR,MEAN_MOTION_DOT,MEAN_MOTION_DDOT,TLE_LINE0,TLE_LINE1,TLE_LINE2,SEMIMAJOR_AXIS,PERIOD,APOGEE,PERIGEE,DECAYED
52681.0,STARLINK-4068,PAYLOAD,2022-08-09 04:00:00,15.08875363,0.0002029,53.2136,258.3058,43.6658,292.7386,-0.0030869,-0.0004913,0.0,0 STARLINK-4068,1 52681U 22053AB  22221.16667824 -.00049130  00000-0 -30869-2 0  9990,2 52681  53.2136 258.3058 0002029  43.6658 292.7386 15.08875363 13209,6917.772,95.435,541.0409999999998,538.234,0.0
52681.0,STARLINK-4068,PAYLOAD,2022-08-09 14:00:01,15.08821617,0.0002198,53.2133,256.4368,36.1067,44.8108,0.0016473,0.00026013,0.0,0 STARLINK-4068,1 52681U 22053AB  22221.58334491  .00026013  00000-0  16473-2 0  9995,2 52681  53.2133 256.4368 0002198  36.1067  44.8108 15.08821617  1306,6917.937,95.439,541.322,538.281,0.0
52681.0,STARLINK-4068,PAYLOAD,2022-08-09 20:00:01,15.08840407,0.0002044999999999,53.2135,255.3131,38.2558,321.349,-0.003231,-0.00051345,0.0,0 STARLINK-4068,1 52681U 22053AB  22221.83334491 -.00051345  00000-0 -32310-2 0  9999,2 52681  53.2135 255.3131 0002045  38.2558 321.3490 15.08840407 13301,6917.879,95.438,541.159,538.3290000000002,0.0
52681.0,STARLINK-4068,PAYLOAD,2022-08-09 22:00:00,15.08804518,0.0001971,53.2135,254.9386,38.6844,53.8265,0.00082049,0.00012782,0.0,0 STARLINK-4068,1 52681U 22053AB  22221.91667824  .00012782  00000-0  82049-3 0  9992,2 52681  53.2135 254.9386 0001971  38.6844  53.8265 15.08804518  1304,6917.989000000001,95.44,541.217,538.49,0.0
52681.0,STARLINK-4068,PAYLOAD,2022-08-10 04:00:00,15.08826554,0.0002018,53.2136,253.8166,40.1819,330.9932,-0.00062714,-0.00010252,0.0,0 STARLINK-4068,1 52681U 22053AB  22222.16667824 -.00010252  00000-0 -62714-3 0  9999,2 52681  53.2136 253.8166 0002018  40.1819 330.9932 15.08826554 13354,6917.920999999999,95.438,541.183,538.39,0.0
52681.0,STARLINK-4068,PAYLOAD,2022-08-10 14:00:01,15.08803809,0.0002236,53.2132,251.9475,35.1548,80.4844,0.0020651999999999,0.00032701,0.0,0 STARLINK-4068,1 52681U 22053AB  22222.58334491  .00032701  00000-0  20652-2 0  9991,2 52681  53.2132 251.9475 0002236  35.1548  80.4844 15.08803809  1306,6917.991,95.44,541.403,538.309,0.0
52681.0,STARLINK-4068,PAYLOAD,2022-08-10 22:00:00,15.08800092,0.0002031,53.2134,250.4493,39.1609,88.0515,0.0023365,0.00037053,0.0,0 STARLINK-4068,1 52681U 22053AB  22222.91667824  .00037053  00000-0  23365-2 0  9996,2 52681  53.2134 250.4493 0002031  39.1609  88.0515 15.08800092  1307,6918.002,95.44,541.2719999999998,538.462,0.0
52681.0,STARLINK-4068,PAYLOAD,2022-08-11 14:00:01,15.08851033,0.0002133999999999,53.2131,247.4578,31.4845,118.9444,-0.00078298,-0.00012732,0.0,0 STARLINK-4068,1 52681U 22053AB  22223.58334491 -.00012732  00000-0 -78298-3 0  9996,2 52681  53.2131 247.4578 0002134  31.4845 118.9444 15.08851033  1300,6917.847,95.437,541.188,538.235,0.0
52681.0,STARLINK-4068,PAYLOAD,2022-08-11 20:00:01,15.0883134,0.0001915,53.2134,246.334,33.9948,35.1432,0.00038625,5.863e-05,0.0,0 STARLINK-4068,1 52681U 22053AB  22223.83334491  .00005863  00000-0  38625-3 0  9999,2 52681  53.2134 246.3340 0001915  33.9948  35.1432 15.08831340 13607,6917.906999999997,95.438,541.097,538.447,0.0
52681.0,STARLINK-4068,PAYLOAD,2022-08-12 14:00:01,15.08842373,0.0002130999999999,53.2129,242.9681,32.032,153.1943,0.00082528,0.00012872,0.0,0 STARLINK-4068,1 52681U 22053AB  22224.58334491  .00012872  00000-0  82528-3 0  9991,2 52681  53.2129 242.9681 0002131  32.0320 153.1943 15.08842373  1306,6917.873000000001,95.437,541.212,538.264,0.0
52681.0,STARLINK-4068,PAYLOAD,2022-08-12 20:00:01,15.0883641,0.0001923,53.2131,241.8443,35.2933,68.7017,0.00095885,0.00015004,0.0,0 STARLINK-4068,1 52681U 22053AB  22224.83335648  .00015004  00000-0  95885-3 0  9994,2 52681  53.2131 241.8443 0001923  35.2933  68.7017 15.08836410 13767,6917.891,95.438,541.087,538.4259999999998,0.0
52681.0,STARLINK-4068,PAYLOAD,2022-08-12 22:00:01,15.08826479,0.0001906,53.2129,241.4698,36.0973,160.8007,0.0025353999999999,0.00040279,0.0,0 STARLINK-4068,1 52681U 22053AB  22224.91668981  .00040279  00000-0  25354-2 0  9997,2 52681  53.2129 241.4698 0001906  36.0973 160.8007 15.08826479  1300,6917.922,95.438,541.105,538.4680000000002,0.0
52681.0,STARLINK-4068,PAYLOAD,2022-08-13 04:00:00,15.08839872,0.0001906,53.2132,240.3482,34.2772,81.2441,-0.0017645,-0.00028261,0.0,0 STARLINK-4068,1 52681U 22053AB  22225.16667824 -.00028261  00000-0 -17645-2 0  9993,2 52681  53.2132 240.3482 0001906  34.2772  81.2441 15.08839872 13818,6917.880999999999,95.438,541.064,538.427,0.0
52681.0,STARLINK-4068,PAYLOAD,2022-08-13 14:00:01,15.08824905,0.0002078,53.2126,238.4784,30.9608,189.0308,-6.6022e-05,-1.338e-05,0.0,0 STARLINK-4068,1 52681U 22053AB  22225.58334491 -.00001338  00000-0 -66022-4 0  9991,2 52681  53.2126 238.4784 0002078  30.9608 189.0308 15.08824905  1307,6917.927,95.439,541.229,538.354,0.0
52681.0,STARLINK-4068,PAYLOAD,2022-08-13 22:00:00,15.08803518,0.000188,53.2126,236.9803,35.3636,196.2119,0.0024944,0.00039594,0.0,0 STARLINK-4068,1 52681U 22053AB  22225.91667824  .00039594  00000-0  24944-2 0  9995,2 52681  53.2126 236.9803 0001880  35.3636 196.2119 15.08803518  1309,6917.9919999999975,95.44,541.1569999999998,538.556,0.0
52681.0,STARLINK-4068,PAYLOAD,2022-08-14 14:00:01,15.08836463,0.0002115,53.2125,233.9888,32.7568,221.9683,-0.0006646,-0.00010849,0.0,0 STARLINK-4068,1 52681U 22053AB  22226.58334491 -.00010849  00000-0 -66460-3 0  9994,2 52681  53.2125 233.9888 0002115  32.7568 221.9683 15.08836463  1302,6917.891,95.438,541.219,538.293,0.0
52681.0,STARLINK-4068,PAYLOAD,2022-08-14 20:00:01,15.08814484,0.0001955,53.2127,232.865,35.8485,137.57399999999998,0.001757,0.00027766,0.0,0 STARLINK-4068,1 52681U 22053AB  22226.83334491  .00027766  00000-0  17570-2 0  9993,2 52681  53.2127 232.8650 0001955  35.8485 137.5740 15.08814484 14064,6917.958000000001,95.439,541.1759999999998,538.471,0.0
52681.0,STARLINK-4068,PAYLOAD,2022-08-14 22:00:00,15.08810566,0.0001956999999999,53.2126,232.4906,37.5796,228.7389,0.0026198,0.00041619,0.0,0 STARLINK-4068,1 52681U 22053AB  22226.91667824  .00041619  00000-0  26198-2 0  9990,2 52681  53.2126 232.4906 0001957  37.5796 228.7389 15.08810566  1301,6917.97,95.439,541.189,538.482,0.0
52681.0,STARLINK-4068,PAYLOAD,2022-08-15 14:00:01,15.08846336,0.0002197,53.2126,229.4992,34.0678,255.4122,-0.0012335999999999,-0.00019871,0.0,0 STARLINK-4068,1 52681U 22053AB  22227.58334491 -.00019871  00000-0 -12336-2 0  9991,2 52681  53.2126 229.4992 0002197  34.0678 255.4122 15.08846336 14175,6917.861,95.437,541.246,538.206,0.0
52681.0,STARLINK-4068,PAYLOAD,2022-08-15 22:00:00,15.08817383,0.0002066999999999,53.2128,228.001,39.246,261.8362,0.0027096,0.00043073,0.0,0 STARLINK-4068,1 52681U 22053AB  22227.91667824  .00043073  00000-0  27096-2 0  9995,2 52681  53.2128 228.0010 0002067  39.2460 261.8362 15.08817383  1303,6917.95,95.439,541.244,538.385,0.0
52681.0,STARLINK-4068,PAYLOAD,2022-08-16 06:00:02,15.08847185,0.0002275,53.213,226.5061,37.5449,275.1884,-0.0010700999999999,-0.00017283,0.0,0 STARLINK-4068,1 52681U 22053AB  22228.25002315 -.00017283  00000-0 -10701-2 0  9992,2 52681  53.2130 226.5061 0002275  37.5449 275.1884 15.08847185 14274,6917.858,95.437,541.297,538.15,0.0
52681.0,STARLINK-4068,PAYLOAD,2022-08-16 14:00:01,15.08858635,0.0002306,53.213,225.0095,35.6173,288.6454,-0.0015227,-0.00024454,0.0,0 STARLINK-4068,1 52681U 22053AB  22228.58334491 -.00024454  00000-0 -15227-2 0  9997,2 52681  53.2130 225.0095 0002306  35.6173 288.6454 15.08858635  1307,6917.823,95.436,541.284,538.0930000000002,0.0
52681.0,STARLINK-4068,PAYLOAD,2022-08-16 22:00:00,15.08828425,0.0002189,53.2133,223.5115,40.9099,294.9656,0.0027375,0.00043536,0.0,0 STARLINK-4068,1 52681U 22053AB  22228.91667824  .00043536  00000-0  27375-2 0  9990,2 52681  53.2133 223.5115 0002189  40.9099 294.9656 15.08828425  1309,6917.916,95.438,541.295,538.266,0.0
52681.0,STARLINK-4068,PAYLOAD,2022-08-17 12:00:00,15.08860636,0.0002411,53.2135,220.8946,36.315,229.8668,-0.0013315,-0.0002143,0.0,0 STARLINK-4068,1 52681U 22053AB  22229.50001157 -.00021430  00000-0 -13315-2 0  9997,2 52681  53.2135 220.8946 0002411  36.3150 229.8668 15.08860636 14469,6917.816999999999,95.436,541.35,538.014,0.0
52681.0,STARLINK-4068,PAYLOAD,2022-08-17 16:00:00,15.08868783,0.0002318,53.2143,220.1451,37.6968,54.2913,-0.0042383,-0.00067168,0.0,0 STARLINK-4068,1 52681U 22053AB  22229.66667824 -.00067168  00000-0 -42383-2 0  9998,2 52681  53.2143 220.1451 0002318  37.6968  54.2913 15.08868783  1302,6917.792,95.436,541.261,538.054,0.0
52681.0,STARLINK-4068,PAYLOAD,2022-08-18 14:00:01,15.088617499999998,0.0002417,53.2139,216.0305,37.8134,356.0627,-0.0016886,-0.00027079,0.0,0 STARLINK-4068,1 52681U 22053AB  22230.58334491 -.00027079  00000-0 -16886-2 0  9998,2 52681  53.2139 216.0305 0002417  37.8134 356.0627 15.08861750  1308,6917.814,95.436,541.351,538.007,0.0
52681.0,STARLINK-4068,PAYLOAD,2022-08-18 22:00:00,15.08838075,0.0002276999999999,53.2141,214.5329,42.6892,2.7993,0.0024774999999999,0.00039361,0.0,0 STARLINK-4068,1 52681U 22053AB  22230.91667824  .00039361  00000-0  24775-2 0  9995,2 52681  53.2141 214.5329 0002277  42.6892   2.7993 15.08838075 14678,6917.886,95.438,541.326,538.1759999999998,0.0
52681.0,STARLINK-4068,PAYLOAD,2022-08-19 14:00:01,15.08850293,0.0002363,53.2139,211.5411,38.0652,30.6423,-0.0017902,-0.00028676,0.0,0 STARLINK-4068,1 52681U 22053AB  22231.58334491 -.00028676  00000-0 -17902-2 0  9993,2 52681  53.2139 211.5411 0002363  38.0652  30.6423 15.08850293 14778,6917.849,95.437,541.349,538.0790000000002,0.0
52681.0,STARLINK-4068,PAYLOAD,2022-08-19 22:00:00,15.08834317,0.0002207,53.214,210.0436,42.0277,38.2731,0.0009798,0.00015338,0.0,0 STARLINK-4068,1 52681U 22053AB  22231.91667824  .00015338  00000-0  97980-3 0  9993,2 52681  53.2140 210.0436 0002207  42.0277  38.2731 15.08834317  1306,6917.898,95.438,541.29,538.236,0.0
